{
    "links": {
        "self": "http://www.neowsapp.com/rest/v1/neo/3463079?api_key=iIulBulltgU6a56xZRHN4H3l9WmuAYTsLGpBGhQ2"
    },
    "id": "3463079",
    "neo_reference_id": "3463079",
    "name": "(2009 LQ)",
    "designation": "2009 LQ",
    "nasa_jpl_url": "http://ssd.jpl.nasa.gov/sbdb.cgi?sstr=3463079",
    "absolute_magnitude_h": 21.7,
    "estimated_diameter": {
        "kilometers": {
            "estimated_diameter_min": 0.1214940408,
            "estimated_diameter_max": 0.2716689341
        },
        "meters": {
            "estimated_diameter_min": 121.4940407996,
            "estimated_diameter_max": 271.6689340891
        },
        "miles": {
            "estimated_diameter_min": 0.0754928736,
            "estimated_diameter_max": 0.1688071972
        },
        "feet": {
            "estimated_diameter_min": 398.6025088171,
            "estimated_diameter_max": 891.3023057169
        }
    },
    "is_potentially_hazardous_asteroid": true,
    "close_approach_data": [
        {
            "close_approach_date": "2009-06-22",
            "close_approach_date_full": "2009-Jun-22 22:59",
            "epoch_date_close_approach": 1245711540000,
            "relative_velocity": {
                "kilometers_per_second": "16.1731543956",
                "kilometers_per_hour": "58223.355824317",
                "miles_per_hour": "36177.7290676152"
            },
            "miss_distance": {
                "astronomical": "0.0737020691",
                "lunar": "28.6701048799",
                "kilometers": "11025672.551952817",
                "miles": "6851035.2370581946"
            },
            "orbiting_body": "Earth"
        }
    ],
    "orbital_data": {
        "orbit_id": "15",
        "orbit_determination_date": "2017-04-06 09:00:27",
        "first_observation_date": "2009-06-11",
        "last_observation_date": "2009-06-20",
        "data_arc_in_days": 9,
        "observations_used": 61,
        "orbit_uncertainty": "9",
        "minimum_orbit_intersection": ".04222",
        "jupiter_tisserand_invariant": "4.258",
        "epoch_osculation": "2454998.5",
        "eccentricity": ".5910291568668766",
        "semi_major_axis": "1.537444764476925",
        "inclination": "5.341205465284249",
        "ascending_node_longitude": "114.6363438246717",
        "orbital_period": "696.3021076035294",
        "perihelion_distance": ".6287700815987345",
        "perihelion_argument": "243.9467291517691",
        "aphelion_distance": "2.446119447355116",
        "perihelion_time": "2455057.188566667378",
        "mean_anomaly": "329.6570155834051",
        "mean_motion": ".5170169615585625",
        "equinox": "J2000",
        "orbit_class": {
            "orbit_class_type": "APO",
            "orbit_class_description": "Near-Earth asteroid orbits which cross the Earth’s orbit similar to that of 1862 Apollo",
            "orbit_class_range": "a (semi-major axis) > 1.0 AU; q (perihelion) < 1.017 AU"
        }
    },
    "is_sentry_object": false
}